{"type": "FeatureCollection", "features": [{"type": "Feature", "geometry": {"x": -75.17332771499997, "y": 3.8302303790000565}, "properties": {"OBJECTID": 1, "NOMBRE": "99", "CATEGORIA": "Asentamiento", "SUBTIPO": "Rural Disperso", "FUENTE": "DANE-CNPV2018", "MUNICIPIO": "", "DATO_ADICIONAL": "Unidades economicas: 4 | Establecimientos: 4"}}, {"type": "Feature", "geometry": {"x": -75.13648505399993, "y": 3.501791155000035}, "properties": {"OBJECTID": 2, "NOMBRE": "99", "CATEGORIA": "Asentamiento", "SUBTIPO": "Rural Disperso", "FUENTE": "DANE-CNPV2018", "MUNICIPIO": "", "DATO_ADICIONAL": "Unidades economicas: 3 | Establecimientos: 3"}}, {"type": "Feature", "geometry": {"x": -74.99187332699995, "y": 3.6706808880000494}, "properties": {"OBJECTID": 3, "NOMBRE": "99", "CATEGORIA": "Asentamiento", "SUBTIPO": "Rural Disperso", "FUENTE": "DANE-CNPV2018", "MUNICIPIO": "", "DATO_ADICIONAL": "Unidades economicas: 4 | Establecimientos: 4"}}, {"type": "Feature", "geometry": {"x": -75.11100277399999, "y": 3.528675556000053}, "properties": {"OBJECTID": 4, "NOMBRE": "99", "CATEGORIA": "Asentamiento", "SUBTIPO": "Rural Disperso", "FUENTE": "DANE-CNPV2018", "MUNICIPIO": "", "DATO_ADICIONAL": "Unidades economicas: 4 | Establecimientos: 4"}}, {"type": "Feature", "geometry": {"x": -75.12490113599995, "y": 3.561165570000071}, "properties": {"OBJECTID": 5, "NOMBRE": "99", "CATEGORIA": "Asentamiento", "SUBTIPO": "Rural Disperso", "FUENTE": "DANE-CNPV2018", "MUNICIPIO": "", "DATO_ADICIONAL": "Unidades economicas: 4 | Establecimientos: 4"}}, {"type": "Feature", "geometry": {"x": -75.26146041999993, "y": 3.9582615730000725}, "properties": {"OBJECTID": 6, "NOMBRE": "99", "CATEGORIA": "Asentamiento", "SUBTIPO": "Rural Disperso", "FUENTE": "DANE-CNPV2018", "MUNICIPIO": "", "DATO_ADICIONAL": "Unidades economicas: 5 | Establecimientos: 5"}}, {"type": "Feature", "geometry": {"x": -75.61562758399998, "y": 4.005084483000076}, "properties": {"OBJECTID": 7, "NOMBRE": "99", "CATEGORIA": "Asentamiento", "SUBTIPO": "Rural Disperso", "FUENTE": "DANE-CNPV2018", "MUNICIPIO": "", "DATO_ADICIONAL": "Unidades economicas: 8 | Establecimientos: 8"}}, {"type": "Feature", "geometry": {"x": -75.30364349999996, "y": 3.758256794000033}, "properties": {"OBJECTID": 8, "NOMBRE": "Zona Comercial — CHAPARRAL", "CATEGORIA": "Comercio", "SUBTIPO": "Zona Comercial Rural", "FUENTE": "DANE-Censo2018", "MUNICIPIO": "CHAPARRAL", "DATO_ADICIONAL": "Unidades comerciales: 5096 | Personas: 574"}}, {"type": "Feature", "geometry": {"x": -75.30364349999996, "y": 3.758256794000033}, "properties": {"OBJECTID": 9, "NOMBRE": "Zona Servicios — CHAPARRAL", "CATEGORIA": "Servicios", "SUBTIPO": "Zona de Servicios Rural", "FUENTE": "DANE-Censo2018", "MUNICIPIO": "CHAPARRAL", "DATO_ADICIONAL": "Unidades servicio: 20 | Hogares: 15012"}}, {"type": "Feature", "geometry": {"x": -75.30364349999996, "y": 3.758256794000033}, "properties": {"OBJECTID": 10, "NOMBRE": "Educacion Primaria — CHAPARRAL", "CATEGORIA": "Educacion", "SUBTIPO": "Educacion Primaria Rural", "FUENTE": "DANE-Censo2018", "MUNICIPIO": "CHAPARRAL", "DATO_ADICIONAL": "Hogares con primaria: 17953"}}, {"type": "Feature", "geometry": {"x": -75.30364349999996, "y": 3.758256794000033}, "properties": {"OBJECTID": 11, "NOMBRE": "Educacion Secundaria — CHAPARRAL", "CATEGORIA": "Educacion", "SUBTIPO": "Educacion Secundaria Rural", "FUENTE": "DANE-Censo2018", "MUNICIPIO": "CHAPARRAL", "DATO_ADICIONAL": "Hogares con secundaria: 14958"}}, {"type": "Feature", "geometry": {"x": -75.30364349999996, "y": 3.758256794000033}, "properties": {"OBJECTID": 12, "NOMBRE": "Acueducto Rural — CHAPARRAL", "CATEGORIA": "Servicios Publicos", "SUBTIPO": "Acueducto Rural", "FUENTE": "DANE-Censo2018", "MUNICIPIO": "CHAPARRAL", "DATO_ADICIONAL": "Hogares con acueducto: 10726"}}, {"type": "Feature", "geometry": {"x": -75.11428268299994, "y": 3.7653310850000707}, "properties": {"OBJECTID": 13, "NOMBRE": "Zona Comercial — COYAIMA", "CATEGORIA": "Comercio", "SUBTIPO": "Zona Comercial Rural", "FUENTE": "DANE-Censo2018", "MUNICIPIO": "COYAIMA", "DATO_ADICIONAL": "Unidades comerciales: 7438 | Personas: 0"}}, {"type": "Feature", "geometry": {"x": -75.11428268299994, "y": 3.7653310850000707}, "properties": {"OBJECTID": 14, "NOMBRE": "Educacion Primaria — COYAIMA", "CATEGORIA": "Educacion", "SUBTIPO": "Educacion Primaria Rural", "FUENTE": "DANE-Censo2018", "MUNICIPIO": "COYAIMA", "DATO_ADICIONAL": "Hogares con primaria: 8663"}}, {"type": "Feature", "geometry": {"x": -75.11428268299994, "y": 3.7653310850000707}, "properties": {"OBJECTID": 15, "NOMBRE": "Educacion Secundaria — COYAIMA", "CATEGORIA": "Educacion", "SUBTIPO": "Educacion Secundaria Rural", "FUENTE": "DANE-Censo2018", "MUNICIPIO": "COYAIMA", "DATO_ADICIONAL": "Hogares con secundaria: 6222"}}, {"type": "Feature", "geometry": {"x": -75.11428268299994, "y": 3.7653310850000707}, "properties": {"OBJECTID": 16, "NOMBRE": "Acueducto Rural — COYAIMA", "CATEGORIA": "Servicios Publicos", "SUBTIPO": "Acueducto Rural", "FUENTE": "DANE-Censo2018", "MUNICIPIO": "COYAIMA", "DATO_ADICIONAL": "Hogares con acueducto: 2215"}}, {"type": "Feature", "geometry": {"x": -75.09454210999996, "y": 3.5563689340000337}, "properties": {"OBJECTID": 17, "NOMBRE": "Zona Comercial — NATAGAIMA", "CATEGORIA": "Comercio", "SUBTIPO": "Zona Comercial Rural", "FUENTE": "DANE-Censo2018", "MUNICIPIO": "NATAGAIMA", "DATO_ADICIONAL": "Unidades comerciales: 3741 | Personas: 18"}}, {"type": "Feature", "geometry": {"x": -75.09454210999996, "y": 3.5563689340000337}, "properties": {"OBJECTID": 18, "NOMBRE": "Zona Servicios — NATAGAIMA", "CATEGORIA": "Servicios", "SUBTIPO": "Zona de Servicios Rural", "FUENTE": "DANE-Censo2018", "MUNICIPIO": "NATAGAIMA", "DATO_ADICIONAL": "Unidades servicio: 2 | Hogares: 4835"}}, {"type": "Feature", "geometry": {"x": -75.09454210999996, "y": 3.5563689340000337}, "properties": {"OBJECTID": 19, "NOMBRE": "Educacion Primaria — NATAGAIMA", "CATEGORIA": "Educacion", "SUBTIPO": "Educacion Primaria Rural", "FUENTE": "DANE-Censo2018", "MUNICIPIO": "NATAGAIMA", "DATO_ADICIONAL": "Hogares con primaria: 5960"}}, {"type": "Feature", "geometry": {"x": -75.09454210999996, "y": 3.5563689340000337}, "properties": {"OBJECTID": 20, "NOMBRE": "Educacion Secundaria — NATAGAIMA", "CATEGORIA": "Educacion", "SUBTIPO": "Educacion Secundaria Rural", "FUENTE": "DANE-Censo2018", "MUNICIPIO": "NATAGAIMA", "DATO_ADICIONAL": "Hogares con secundaria: 5277"}}, {"type": "Feature", "geometry": {"x": -75.09454210999996, "y": 3.5563689340000337}, "properties": {"OBJECTID": 21, "NOMBRE": "Acueducto Rural — NATAGAIMA", "CATEGORIA": "Servicios Publicos", "SUBTIPO": "Acueducto Rural", "FUENTE": "DANE-Censo2018", "MUNICIPIO": "NATAGAIMA", "DATO_ADICIONAL": "Hogares con acueducto: 4357"}}, {"type": "Feature", "geometry": {"x": -75.23410108599995, "y": 3.917278181000029}, "properties": {"OBJECTID": 22, "NOMBRE": "Zona Comercial — ORTEGA", "CATEGORIA": "Comercio", "SUBTIPO": "Zona Comercial Rural", "FUENTE": "DANE-Censo2018", "MUNICIPIO": "ORTEGA", "DATO_ADICIONAL": "Unidades comerciales: 5884 | Personas: 3"}}, {"type": "Feature", "geometry": {"x": -75.23410108599995, "y": 3.917278181000029}, "properties": {"OBJECTID": 23, "NOMBRE": "Zona Servicios — ORTEGA", "CATEGORIA": "Servicios", "SUBTIPO": "Zona de Servicios Rural", "FUENTE": "DANE-Censo2018", "MUNICIPIO": "ORTEGA", "DATO_ADICIONAL": "Unidades servicio: 1 | Hogares: 9804"}}, {"type": "Feature", "geometry": {"x": -75.23410108599995, "y": 3.917278181000029}, "properties": {"OBJECTID": 24, "NOMBRE": "Educacion Primaria — ORTEGA", "CATEGORIA": "Educacion", "SUBTIPO": "Educacion Primaria Rural", "FUENTE": "DANE-Censo2018", "MUNICIPIO": "ORTEGA", "DATO_ADICIONAL": "Hogares con primaria: 13462"}}, {"type": "Feature", "geometry": {"x": -75.23410108599995, "y": 3.917278181000029}, "properties": {"OBJECTID": 25, "NOMBRE": "Educacion Secundaria — ORTEGA", "CATEGORIA": "Educacion", "SUBTIPO": "Educacion Secundaria Rural", "FUENTE": "DANE-Censo2018", "MUNICIPIO": "ORTEGA", "DATO_ADICIONAL": "Hogares con secundaria: 10148"}}, {"type": "Feature", "geometry": {"x": -75.23410108599995, "y": 3.917278181000029}, "properties": {"OBJECTID": 26, "NOMBRE": "Acueducto Rural — ORTEGA", "CATEGORIA": "Servicios Publicos", "SUBTIPO": "Acueducto Rural", "FUENTE": "DANE-Censo2018", "MUNICIPIO": "ORTEGA", "DATO_ADICIONAL": "Hogares con acueducto: 5632"}}, {"type": "Feature", "geometry": {"x": -74.98610211499994, "y": 3.7033742000000416}, "properties": {"OBJECTID": 27, "NOMBRE": "Zona Comercial — PRADO", "CATEGORIA": "Comercio", "SUBTIPO": "Zona Comercial Rural", "FUENTE": "DANE-Censo2018", "MUNICIPIO": "PRADO", "DATO_ADICIONAL": "Unidades comerciales: 2745 | Personas: 0"}}, {"type": "Feature", "geometry": {"x": -74.98610211499994, "y": 3.7033742000000416}, "properties": {"OBJECTID": 28, "NOMBRE": "Educacion Primaria — PRADO", "CATEGORIA": "Educacion", "SUBTIPO": "Educacion Primaria Rural", "FUENTE": "DANE-Censo2018", "MUNICIPIO": "PRADO", "DATO_ADICIONAL": "Hogares con primaria: 3332"}}, {"type": "Feature", "geometry": {"x": -74.98610211499994, "y": 3.7033742000000416}, "properties": {"OBJECTID": 29, "NOMBRE": "Educacion Secundaria — PRADO", "CATEGORIA": "Educacion", "SUBTIPO": "Educacion Secundaria Rural", "FUENTE": "DANE-Censo2018", "MUNICIPIO": "PRADO", "DATO_ADICIONAL": "Hogares con secundaria: 2831"}}, {"type": "Feature", "geometry": {"x": -74.98610211499994, "y": 3.7033742000000416}, "properties": {"OBJECTID": 30, "NOMBRE": "Acueducto Rural — PRADO", "CATEGORIA": "Servicios Publicos", "SUBTIPO": "Acueducto Rural", "FUENTE": "DANE-Censo2018", "MUNICIPIO": "PRADO", "DATO_ADICIONAL": "Hogares con acueducto: 2204"}}, {"type": "Feature", "geometry": {"x": -75.00541586199995, "y": 3.785081845000036}, "properties": {"OBJECTID": 31, "NOMBRE": "Zona Comercial — PURIFICACIÓN", "CATEGORIA": "Comercio", "SUBTIPO": "Zona Comercial Rural", "FUENTE": "DANE-Censo2018", "MUNICIPIO": "PURIFICACIÓN", "DATO_ADICIONAL": "Unidades comerciales: 5606 | Personas: 221"}}, {"type": "Feature", "geometry": {"x": -75.00541586199995, "y": 3.785081845000036}, "properties": {"OBJECTID": 32, "NOMBRE": "Zona Servicios — PURIFICACIÓN", "CATEGORIA": "Servicios", "SUBTIPO": "Zona de Servicios Rural", "FUENTE": "DANE-Censo2018", "MUNICIPIO": "PURIFICACIÓN", "DATO_ADICIONAL": "Unidades servicio: 12 | Hogares: 7559"}}, {"type": "Feature", "geometry": {"x": -75.00541586199995, "y": 3.785081845000036}, "properties": {"OBJECTID": 33, "NOMBRE": "Educacion Primaria — PURIFICACIÓN", "CATEGORIA": "Educacion", "SUBTIPO": "Educacion Primaria Rural", "FUENTE": "DANE-Censo2018", "MUNICIPIO": "PURIFICACIÓN", "DATO_ADICIONAL": "Hogares con primaria: 9068"}}, {"type": "Feature", "geometry": {"x": -75.00541586199995, "y": 3.785081845000036}, "properties": {"OBJECTID": 34, "NOMBRE": "Educacion Secundaria — PURIFICACIÓN", "CATEGORIA": "Educacion", "SUBTIPO": "Educacion Secundaria Rural", "FUENTE": "DANE-Censo2018", "MUNICIPIO": "PURIFICACIÓN", "DATO_ADICIONAL": "Hogares con secundaria: 8545"}}, {"type": "Feature", "geometry": {"x": -75.00541586199995, "y": 3.785081845000036}, "properties": {"OBJECTID": 35, "NOMBRE": "Acueducto Rural — PURIFICACIÓN", "CATEGORIA": "Servicios Publicos", "SUBTIPO": "Acueducto Rural", "FUENTE": "DANE-Censo2018", "MUNICIPIO": "PURIFICACIÓN", "DATO_ADICIONAL": "Hogares con acueducto: 6340"}}, {"type": "Feature", "geometry": {"x": -75.63777579899994, "y": 4.02574689100004}, "properties": {"OBJECTID": 36, "NOMBRE": "Zona Comercial — RONCESVALLES", "CATEGORIA": "Comercio", "SUBTIPO": "Zona Comercial Rural", "FUENTE": "DANE-Censo2018", "MUNICIPIO": "RONCESVALLES", "DATO_ADICIONAL": "Unidades comerciales: 708 | Personas: 68"}}, {"type": "Feature", "geometry": {"x": -75.63777579899994, "y": 4.02574689100004}, "properties": {"OBJECTID": 37, "NOMBRE": "Zona Servicios — RONCESVALLES", "CATEGORIA": "Servicios", "SUBTIPO": "Zona de Servicios Rural", "FUENTE": "DANE-Censo2018", "MUNICIPIO": "RONCESVALLES", "DATO_ADICIONAL": "Unidades servicio: 2 | Hogares: 1737"}}, {"type": "Feature", "geometry": {"x": -75.63777579899994, "y": 4.02574689100004}, "properties": {"OBJECTID": 38, "NOMBRE": "Educacion Primaria — RONCESVALLES", "CATEGORIA": "Educacion", "SUBTIPO": "Educacion Primaria Rural", "FUENTE": "DANE-Censo2018", "MUNICIPIO": "RONCESVALLES", "DATO_ADICIONAL": "Hogares con primaria: 2409"}}, {"type": "Feature", "geometry": {"x": -75.63777579899994, "y": 4.02574689100004}, "properties": {"OBJECTID": 39, "NOMBRE": "Educacion Secundaria — RONCESVALLES", "CATEGORIA": "Educacion", "SUBTIPO": "Educacion Secundaria Rural", "FUENTE": "DANE-Censo2018", "MUNICIPIO": "RONCESVALLES", "DATO_ADICIONAL": "Hogares con secundaria: 1725"}}, {"type": "Feature", "geometry": {"x": -75.63777579899994, "y": 4.02574689100004}, "properties": {"OBJECTID": 40, "NOMBRE": "Acueducto Rural — RONCESVALLES", "CATEGORIA": "Servicios Publicos", "SUBTIPO": "Acueducto Rural", "FUENTE": "DANE-Censo2018", "MUNICIPIO": "RONCESVALLES", "DATO_ADICIONAL": "Hogares con acueducto: 762"}}, {"type": "Feature", "geometry": {"x": -75.07717680699994, "y": 3.875866651000024}, "properties": {"OBJECTID": 41, "NOMBRE": "Zona Comercial — SALDAÑA", "CATEGORIA": "Comercio", "SUBTIPO": "Zona Comercial Rural", "FUENTE": "DANE-Censo2018", "MUNICIPIO": "SALDAÑA", "DATO_ADICIONAL": "Unidades comerciales: 2743 | Personas: 21"}}, {"type": "Feature", "geometry": {"x": -75.07717680699994, "y": 3.875866651000024}, "properties": {"OBJECTID": 42, "NOMBRE": "Zona Servicios — SALDAÑA", "CATEGORIA": "Servicios", "SUBTIPO": "Zona de Servicios Rural", "FUENTE": "DANE-Censo2018", "MUNICIPIO": "SALDAÑA", "DATO_ADICIONAL": "Unidades servicio: 1 | Hogares: 4641"}}, {"type": "Feature", "geometry": {"x": -75.07717680699994, "y": 3.875866651000024}, "properties": {"OBJECTID": 43, "NOMBRE": "Educacion Primaria — SALDAÑA", "CATEGORIA": "Educacion", "SUBTIPO": "Educacion Primaria Rural", "FUENTE": "DANE-Censo2018", "MUNICIPIO": "SALDAÑA", "DATO_ADICIONAL": "Hogares con primaria: 5753"}}, {"type": "Feature", "geometry": {"x": -75.07717680699994, "y": 3.875866651000024}, "properties": {"OBJECTID": 44, "NOMBRE": "Educacion Secundaria — SALDAÑA", "CATEGORIA": "Educacion", "SUBTIPO": "Educacion Secundaria Rural", "FUENTE": "DANE-Censo2018", "MUNICIPIO": "SALDAÑA", "DATO_ADICIONAL": "Hogares con secundaria: 5638"}}, {"type": "Feature", "geometry": {"x": -75.07717680699994, "y": 3.875866651000024}, "properties": {"OBJECTID": 45, "NOMBRE": "Acueducto Rural — SALDAÑA", "CATEGORIA": "Servicios Publicos", "SUBTIPO": "Acueducto Rural", "FUENTE": "DANE-Censo2018", "MUNICIPIO": "SALDAÑA", "DATO_ADICIONAL": "Hogares con acueducto: 2886"}}, {"type": "Feature", "geometry": {"x": -75.58519498699997, "y": 3.9759354250000456}, "properties": {"OBJECTID": 46, "NOMBRE": "Zona Comercial — SAN ANTONIO", "CATEGORIA": "Comercio", "SUBTIPO": "Zona Comercial Rural", "FUENTE": "DANE-Censo2018", "MUNICIPIO": "SAN ANTONIO", "DATO_ADICIONAL": "Unidades comerciales: 1683 | Personas: 36"}}, {"type": "Feature", "geometry": {"x": -75.58519498699997, "y": 3.9759354250000456}, "properties": {"OBJECTID": 47, "NOMBRE": "Zona Servicios — SAN ANTONIO", "CATEGORIA": "Servicios", "SUBTIPO": "Zona de Servicios Rural", "FUENTE": "DANE-Censo2018", "MUNICIPIO": "SAN ANTONIO", "DATO_ADICIONAL": "Unidades servicio: 2 | Hogares: 3569"}}, {"type": "Feature", "geometry": {"x": -75.58519498699997, "y": 3.9759354250000456}, "properties": {"OBJECTID": 48, "NOMBRE": "Educacion Primaria — SAN ANTONIO", "CATEGORIA": "Educacion", "SUBTIPO": "Educacion Primaria Rural", "FUENTE": "DANE-Censo2018", "MUNICIPIO": "SAN ANTONIO", "DATO_ADICIONAL": "Hogares con primaria: 5268"}}, {"type": "Feature", "geometry": {"x": -75.58519498699997, "y": 3.9759354250000456}, "properties": {"OBJECTID": 49, "NOMBRE": "Educacion Secundaria — SAN ANTONIO", "CATEGORIA": "Educacion", "SUBTIPO": "Educacion Secundaria Rural", "FUENTE": "DANE-Censo2018", "MUNICIPIO": "SAN ANTONIO", "DATO_ADICIONAL": "Hogares con secundaria: 3792"}}, {"type": "Feature", "geometry": {"x": -75.58519498699997, "y": 3.9759354250000456}, "properties": {"OBJECTID": 50, "NOMBRE": "Acueducto Rural — SAN ANTONIO", "CATEGORIA": "Servicios Publicos", "SUBTIPO": "Acueducto Rural", "FUENTE": "DANE-Censo2018", "MUNICIPIO": "SAN ANTONIO", "DATO_ADICIONAL": "Hogares con acueducto: 2352"}}, {"type": "Feature", "geometry": {"x": -75.16752481899994, "y": 4.020987194000043}, "properties": {"OBJECTID": 51, "NOMBRE": "Zona Comercial — SAN LUIS", "CATEGORIA": "Comercio", "SUBTIPO": "Zona Comercial Rural", "FUENTE": "DANE-Censo2018", "MUNICIPIO": "SAN LUIS", "DATO_ADICIONAL": "Unidades comerciales: 2142 | Personas: 0"}}, {"type": "Feature", "geometry": {"x": -75.16752481899994, "y": 4.020987194000043}, "properties": {"OBJECTID": 52, "NOMBRE": "Educacion Primaria — SAN LUIS", "CATEGORIA": "Educacion", "SUBTIPO": "Educacion Primaria Rural", "FUENTE": "DANE-Censo2018", "MUNICIPIO": "SAN LUIS", "DATO_ADICIONAL": "Hogares con primaria: 4888"}}, {"type": "Feature", "geometry": {"x": -75.16752481899994, "y": 4.020987194000043}, "properties": {"OBJECTID": 53, "NOMBRE": "Educacion Secundaria — SAN LUIS", "CATEGORIA": "Educacion", "SUBTIPO": "Educacion Secundaria Rural", "FUENTE": "DANE-Censo2018", "MUNICIPIO": "SAN LUIS", "DATO_ADICIONAL": "Hogares con secundaria: 4498"}}, {"type": "Feature", "geometry": {"x": -75.16752481899994, "y": 4.020987194000043}, "properties": {"OBJECTID": 54, "NOMBRE": "Acueducto Rural — SAN LUIS", "CATEGORIA": "Servicios Publicos", "SUBTIPO": "Acueducto Rural", "FUENTE": "DANE-Censo2018", "MUNICIPIO": "SAN LUIS", "DATO_ADICIONAL": "Hogares con acueducto: 3131"}}, {"type": "Feature", "geometry": {"x": -75.21882087999995, "y": 4.104682527000023}, "properties": {"OBJECTID": 55, "NOMBRE": "Zona Comercial — VALLE DE SAN JUAN", "CATEGORIA": "Comercio", "SUBTIPO": "Zona Comercial Rural", "FUENTE": "DANE-Censo2018", "MUNICIPIO": "VALLE DE SAN JUAN", "DATO_ADICIONAL": "Unidades comerciales: 950 | Personas: 0"}}, {"type": "Feature", "geometry": {"x": -75.21882087999995, "y": 4.104682527000023}, "properties": {"OBJECTID": 56, "NOMBRE": "Educacion Primaria — VALLE DE SAN JUAN", "CATEGORIA": "Educacion", "SUBTIPO": "Educacion Primaria Rural", "FUENTE": "DANE-Censo2018", "MUNICIPIO": "VALLE DE SAN JUAN", "DATO_ADICIONAL": "Hogares con primaria: 1946"}}, {"type": "Feature", "geometry": {"x": -75.21882087999995, "y": 4.104682527000023}, "properties": {"OBJECTID": 57, "NOMBRE": "Educacion Secundaria — VALLE DE SAN JUAN", "CATEGORIA": "Educacion", "SUBTIPO": "Educacion Secundaria Rural", "FUENTE": "DANE-Censo2018", "MUNICIPIO": "VALLE DE SAN JUAN", "DATO_ADICIONAL": "Hogares con secundaria: 1471"}}, {"type": "Feature", "geometry": {"x": -75.21882087999995, "y": 4.104682527000023}, "properties": {"OBJECTID": 58, "NOMBRE": "Acueducto Rural — VALLE DE SAN JUAN", "CATEGORIA": "Servicios Publicos", "SUBTIPO": "Acueducto Rural", "FUENTE": "DANE-Censo2018", "MUNICIPIO": "VALLE DE SAN JUAN", "DATO_ADICIONAL": "Hogares con acueducto: 1311"}}, {"type": "Feature", "geometry": {"x": -75.19414068199995, "y": 3.798123510000039}, "properties": {"OBJECTID": 59, "NOMBRE": "Sector Rural — Chaparral", "CATEGORIA": "Asentamiento", "SUBTIPO": "Sector Rural DANE", "FUENTE": "DANE-MarcoGeo", "MUNICIPIO": "Chaparral", "DATO_ADICIONAL": "Codigo sector: 732170101"}}, {"type": "Feature", "geometry": {"x": -75.06185890999996, "y": 3.819120375000068}, "properties": {"OBJECTID": 60, "NOMBRE": "Sector Rural — Chaparral", "CATEGORIA": "Asentamiento", "SUBTIPO": "Sector Rural DANE", "FUENTE": "DANE-MarcoGeo", "MUNICIPIO": "Chaparral", "DATO_ADICIONAL": "Codigo sector: 732170102"}}, {"type": "Feature", "geometry": {"x": -75.02180785499996, "y": 3.6918931300000395}, "properties": {"OBJECTID": 61, "NOMBRE": "Sector Rural — Chaparral", "CATEGORIA": "Asentamiento", "SUBTIPO": "Sector Rural DANE", "FUENTE": "DANE-MarcoGeo", "MUNICIPIO": "Chaparral", "DATO_ADICIONAL": "Codigo sector: 732170103"}}, {"type": "Feature", "geometry": {"x": -75.19033894599994, "y": 3.4027808280000613}, "properties": {"OBJECTID": 62, "NOMBRE": "Sector Rural — Natagaima", "CATEGORIA": "Asentamiento", "SUBTIPO": "Sector Rural DANE", "FUENTE": "DANE-MarcoGeo", "MUNICIPIO": "Natagaima", "DATO_ADICIONAL": "Codigo sector: 734830200"}}, {"type": "Feature", "geometry": {"x": -75.09320266099996, "y": 3.6244859510000538}, "properties": {"OBJECTID": 63, "NOMBRE": "Sector Rural — Natagaima", "CATEGORIA": "Asentamiento", "SUBTIPO": "Sector Rural DANE", "FUENTE": "DANE-MarcoGeo", "MUNICIPIO": "Natagaima", "DATO_ADICIONAL": "Codigo sector: 734830100"}}, {"type": "Feature", "geometry": {"x": -75.10420557699996, "y": 3.5304958170000305}, "properties": {"OBJECTID": 64, "NOMBRE": "Sector Rural — Natagaima", "CATEGORIA": "Asentamiento", "SUBTIPO": "Sector Rural DANE", "FUENTE": "DANE-MarcoGeo", "MUNICIPIO": "Natagaima", "DATO_ADICIONAL": "Codigo sector: 734830300"}}, {"type": "Feature", "geometry": {"x": -75.22451475999998, "y": 3.9343556690000696}, "properties": {"OBJECTID": 65, "NOMBRE": "Sector Rural — Ortega", "CATEGORIA": "Asentamiento", "SUBTIPO": "Sector Rural DANE", "FUENTE": "DANE-MarcoGeo", "MUNICIPIO": "Ortega", "DATO_ADICIONAL": "Codigo sector: 735040100"}}, {"type": "Feature", "geometry": {"x": -75.33173863999997, "y": 3.8109411710000245}, "properties": {"OBJECTID": 66, "NOMBRE": "Sector Rural — Ortega", "CATEGORIA": "Asentamiento", "SUBTIPO": "Sector Rural DANE", "FUENTE": "DANE-MarcoGeo", "MUNICIPIO": "Ortega", "DATO_ADICIONAL": "Codigo sector: 735040200"}}, {"type": "Feature", "geometry": {"x": -75.22760792899999, "y": 3.779572887000029}, "properties": {"OBJECTID": 67, "NOMBRE": "Sector Rural — Ortega", "CATEGORIA": "Asentamiento", "SUBTIPO": "Sector Rural DANE", "FUENTE": "DANE-MarcoGeo", "MUNICIPIO": "Ortega", "DATO_ADICIONAL": "Codigo sector: 735040300"}}, {"type": "Feature", "geometry": {"x": -75.27433778099999, "y": 4.001530953000042}, "properties": {"OBJECTID": 68, "NOMBRE": "Sector Rural — Ortega", "CATEGORIA": "Asentamiento", "SUBTIPO": "Sector Rural DANE", "FUENTE": "DANE-MarcoGeo", "MUNICIPIO": "Ortega", "DATO_ADICIONAL": "Codigo sector: 735040400"}}, {"type": "Feature", "geometry": {"x": -75.20537169199997, "y": 3.8665966830000684}, "properties": {"OBJECTID": 69, "NOMBRE": "Sector Rural — Ortega", "CATEGORIA": "Asentamiento", "SUBTIPO": "Sector Rural DANE", "FUENTE": "DANE-MarcoGeo", "MUNICIPIO": "Ortega", "DATO_ADICIONAL": "Codigo sector: 735040700"}}, {"type": "Feature", "geometry": {"x": -75.30320749499998, "y": 3.772677482000063}, "properties": {"OBJECTID": 70, "NOMBRE": "Sector Rural — Ortega", "CATEGORIA": "Asentamiento", "SUBTIPO": "Sector Rural DANE", "FUENTE": "DANE-MarcoGeo", "MUNICIPIO": "Ortega", "DATO_ADICIONAL": "Codigo sector: 735041100"}}, {"type": "Feature", "geometry": {"x": -75.17748005399994, "y": 3.8817729870000335}, "properties": {"OBJECTID": 71, "NOMBRE": "Sector Rural — Ortega", "CATEGORIA": "Asentamiento", "SUBTIPO": "Sector Rural DANE", "FUENTE": "DANE-MarcoGeo", "MUNICIPIO": "Ortega", "DATO_ADICIONAL": "Codigo sector: 735041200"}}, {"type": "Feature", "geometry": {"x": -75.09532023299994, "y": 3.9673561430000746}, "properties": {"OBJECTID": 72, "NOMBRE": "Sector Rural — Ortega", "CATEGORIA": "Asentamiento", "SUBTIPO": "Sector Rural DANE", "FUENTE": "DANE-MarcoGeo", "MUNICIPIO": "Ortega", "DATO_ADICIONAL": "Codigo sector: 735041500"}}, {"type": "Feature", "geometry": {"x": -75.28628599799998, "y": 3.8278593170000477}, "properties": {"OBJECTID": 73, "NOMBRE": "Sector Rural — Ortega", "CATEGORIA": "Asentamiento", "SUBTIPO": "Sector Rural DANE", "FUENTE": "DANE-MarcoGeo", "MUNICIPIO": "Ortega", "DATO_ADICIONAL": "Codigo sector: 735041800"}}, {"type": "Feature", "geometry": {"x": -75.32952232899999, "y": 3.8170188340000664}, "properties": {"OBJECTID": 74, "NOMBRE": "Sector Rural — Ortega", "CATEGORIA": "Asentamiento", "SUBTIPO": "Sector Rural DANE", "FUENTE": "DANE-MarcoGeo", "MUNICIPIO": "Ortega", "DATO_ADICIONAL": "Codigo sector: 735041900"}}, {"type": "Feature", "geometry": {"x": -75.34860405299997, "y": 3.903728312000055}, "properties": {"OBJECTID": 75, "NOMBRE": "Sector Rural — Ortega", "CATEGORIA": "Asentamiento", "SUBTIPO": "Sector Rural DANE", "FUENTE": "DANE-MarcoGeo", "MUNICIPIO": "Ortega", "DATO_ADICIONAL": "Codigo sector: 735042000"}}, {"type": "Feature", "geometry": {"x": -75.32819301599994, "y": 3.8184299240000428}, "properties": {"OBJECTID": 76, "NOMBRE": "Sector Rural — Ortega", "CATEGORIA": "Asentamiento", "SUBTIPO": "Sector Rural DANE", "FUENTE": "DANE-MarcoGeo", "MUNICIPIO": "Ortega", "DATO_ADICIONAL": "Codigo sector: 735041300"}}, {"type": "Feature", "geometry": {"x": -75.22089011099996, "y": 3.9331897500000537}, "properties": {"OBJECTID": 77, "NOMBRE": "Sector Rural — Ortega", "CATEGORIA": "Asentamiento", "SUBTIPO": "Sector Rural DANE", "FUENTE": "DANE-MarcoGeo", "MUNICIPIO": "Ortega", "DATO_ADICIONAL": "Codigo sector: 735040100"}}, {"type": "Feature", "geometry": {"x": -75.22253713999999, "y": 3.9349773010000604}, "properties": {"OBJECTID": 78, "NOMBRE": "Sector Rural — Ortega", "CATEGORIA": "Asentamiento", "SUBTIPO": "Sector Rural DANE", "FUENTE": "DANE-MarcoGeo", "MUNICIPIO": "Ortega", "DATO_ADICIONAL": "Codigo sector: 735040100"}}, {"type": "Feature", "geometry": {"x": -75.22257494199994, "y": 3.93504157600006}, "properties": {"OBJECTID": 79, "NOMBRE": "Sector Rural — Ortega", "CATEGORIA": "Asentamiento", "SUBTIPO": "Sector Rural DANE", "FUENTE": "DANE-MarcoGeo", "MUNICIPIO": "Ortega", "DATO_ADICIONAL": "Codigo sector: 735040100"}}, {"type": "Feature", "geometry": {"x": -75.22038159599998, "y": 3.9348653070000523}, "properties": {"OBJECTID": 80, "NOMBRE": "Sector Rural — Ortega", "CATEGORIA": "Asentamiento", "SUBTIPO": "Sector Rural DANE", "FUENTE": "DANE-MarcoGeo", "MUNICIPIO": "Ortega", "DATO_ADICIONAL": "Codigo sector: 735040100"}}, {"type": "Feature", "geometry": {"x": -75.22099765199994, "y": 3.9350114210000697}, "properties": {"OBJECTID": 81, "NOMBRE": "Sector Rural — Ortega", "CATEGORIA": "Asentamiento", "SUBTIPO": "Sector Rural DANE", "FUENTE": "DANE-MarcoGeo", "MUNICIPIO": "Ortega", "DATO_ADICIONAL": "Codigo sector: 735040100"}}, {"type": "Feature", "geometry": {"x": -75.22238343299995, "y": 3.936244471000066}, "properties": {"OBJECTID": 82, "NOMBRE": "Sector Rural — Ortega", "CATEGORIA": "Asentamiento", "SUBTIPO": "Sector Rural DANE", "FUENTE": "DANE-MarcoGeo", "MUNICIPIO": "Ortega", "DATO_ADICIONAL": "Codigo sector: 735040100"}}, {"type": "Feature", "geometry": {"x": -75.22575739899997, "y": 3.934312946000034}, "properties": {"OBJECTID": 83, "NOMBRE": "Sector Rural — Ortega", "CATEGORIA": "Asentamiento", "SUBTIPO": "Sector Rural DANE", "FUENTE": "DANE-MarcoGeo", "MUNICIPIO": "Ortega", "DATO_ADICIONAL": "Codigo sector: 735040100"}}, {"type": "Feature", "geometry": {"x": -75.60605662999996, "y": 4.011376084000062}, "properties": {"OBJECTID": 84, "NOMBRE": "Sector Rural — Roncesvalles", "CATEGORIA": "Asentamiento", "SUBTIPO": "Sector Rural DANE", "FUENTE": "DANE-MarcoGeo", "MUNICIPIO": "Roncesvalles", "DATO_ADICIONAL": "Codigo sector: 736220100"}}, {"type": "Feature", "geometry": {"x": -75.19297819999997, "y": 3.800156050000055}, "properties": {"OBJECTID": 85, "NOMBRE": "Sede Educativa", "CATEGORIA": "Educacion", "SUBTIPO": "Sede Educativa", "FUENTE": "OSM-HOT", "MUNICIPIO": "", "DATO_ADICIONAL": "school"}}, {"type": "Feature", "geometry": {"x": -75.19764898899996, "y": 3.412553727000045}, "properties": {"OBJECTID": 86, "NOMBRE": "Hotel", "CATEGORIA": "Turismo", "SUBTIPO": "Hotel", "FUENTE": "OSM-HOT", "MUNICIPIO": "", "DATO_ADICIONAL": "hotel"}}, {"type": "Feature", "geometry": {"x": -75.33301070199997, "y": 3.810996353000064}, "properties": {"OBJECTID": 87, "NOMBRE": "Iglesia/Capilla", "CATEGORIA": "Religion", "SUBTIPO": "Iglesia/Capilla", "FUENTE": "OSM-HOT", "MUNICIPIO": "", "DATO_ADICIONAL": "church"}}, {"type": "Feature", "geometry": {"x": -75.19314614999996, "y": 3.8003389000000425}, "properties": {"OBJECTID": 88, "NOMBRE": "Sede Educativa", "CATEGORIA": "Educacion", "SUBTIPO": "Sede Educativa", "FUENTE": "OSM-HOT", "MUNICIPIO": "", "DATO_ADICIONAL": "school"}}, {"type": "Feature", "geometry": {"x": -75.12259506199996, "y": 3.813450845000034}, "properties": {"OBJECTID": 89, "NOMBRE": "Casa del Tio Ruben", "CATEGORIA": "Produccion Agr", "SUBTIPO": "Predio Agropecuario", "FUENTE": "OSM-HOT", "MUNICIPIO": "", "DATO_ADICIONAL": "farm"}}, {"type": "Feature", "geometry": {"x": -75.06613127999998, "y": 3.817728837000061}, "properties": {"OBJECTID": 90, "NOMBRE": "Huerta articulación media", "CATEGORIA": "Produccion Agr", "SUBTIPO": "Invernadero", "FUENTE": "OSM-HOT", "MUNICIPIO": "", "DATO_ADICIONAL": "greenhouse"}}, {"type": "Feature", "geometry": {"x": -75.06188828999996, "y": 3.818039952000049}, "properties": {"OBJECTID": 91, "NOMBRE": "Huerta biología aplicada", "CATEGORIA": "Produccion Agr", "SUBTIPO": "Invernadero", "FUENTE": "OSM-HOT", "MUNICIPIO": "", "DATO_ADICIONAL": "greenhouse"}}, {"type": "Feature", "geometry": {"x": -75.06092520599998, "y": 3.817319894000036}, "properties": {"OBJECTID": 92, "NOMBRE": "Laboratorios Fase I - Hidraúlica", "CATEGORIA": "Educacion", "SUBTIPO": "Universidad/Instituto", "FUENTE": "OSM-HOT", "MUNICIPIO": "", "DATO_ADICIONAL": "university"}}, {"type": "Feature", "geometry": {"x": -75.06066226599995, "y": 3.8175348560000657}, "properties": {"OBJECTID": 93, "NOMBRE": "Reservorio", "CATEGORIA": "Produccion Agr", "SUBTIPO": "Invernadero", "FUENTE": "OSM-HOT", "MUNICIPIO": "", "DATO_ADICIONAL": "greenhouse"}}, {"type": "Feature", "geometry": {"x": -75.06020199199997, "y": 3.817509972000039}, "properties": {"OBJECTID": 94, "NOMBRE": "Propagación Vegetal", "CATEGORIA": "Produccion Agr", "SUBTIPO": "Invernadero", "FUENTE": "OSM-HOT", "MUNICIPIO": "", "DATO_ADICIONAL": "greenhouse"}}, {"type": "Feature", "geometry": {"x": -75.05866094999999, "y": 3.8168949000000225}, "properties": {"OBJECTID": 95, "NOMBRE": "Fitopatología clavel y rosa I", "CATEGORIA": "Produccion Agr", "SUBTIPO": "Invernadero", "FUENTE": "OSM-HOT", "MUNICIPIO": "", "DATO_ADICIONAL": "greenhouse"}}, {"type": "Feature", "geometry": {"x": -75.06109353499994, "y": 3.8156617160000224}, "properties": {"OBJECTID": 96, "NOMBRE": "Fitopatologia y ecofisiología", "CATEGORIA": "Produccion Agr", "SUBTIPO": "Invernadero", "FUENTE": "OSM-HOT", "MUNICIPIO": "", "DATO_ADICIONAL": "greenhouse"}}, {"type": "Feature", "geometry": {"x": -75.19061976899997, "y": 3.7994312780000428}, "properties": {"OBJECTID": 97, "NOMBRE": "Universidad San Buenaventura", "CATEGORIA": "Educacion", "SUBTIPO": "Universidad/Instituto", "FUENTE": "OSM-HOT", "MUNICIPIO": "", "DATO_ADICIONAL": "university"}}, {"type": "Feature", "geometry": {"x": -75.19122232099994, "y": 3.798653201000036}, "properties": {"OBJECTID": 98, "NOMBRE": "Parroquía Nuestra Señora de los Dolores", "CATEGORIA": "Religion", "SUBTIPO": "Iglesia/Capilla", "FUENTE": "OSM-HOT", "MUNICIPIO": "", "DATO_ADICIONAL": "church"}}, {"type": "Feature", "geometry": {"x": -75.10463725699998, "y": 3.624615223000035}, "properties": {"OBJECTID": 99, "NOMBRE": "Iglesia Cristiana Camino De Vida", "CATEGORIA": "Religion", "SUBTIPO": "Iglesia/Capilla", "FUENTE": "OSM-HOT", "MUNICIPIO": "", "DATO_ADICIONAL": "church"}}, {"type": "Feature", "geometry": {"x": -75.09640029999997, "y": 3.62066255000002}, "properties": {"OBJECTID": 100, "NOMBRE": "Iglesia/Capilla", "CATEGORIA": "Religion", "SUBTIPO": "Iglesia/Capilla", "FUENTE": "OSM-HOT", "MUNICIPIO": "", "DATO_ADICIONAL": "church"}}, {"type": "Feature", "geometry": {"x": -75.09214007399999, "y": 3.6174520110000685}, "properties": {"OBJECTID": 101, "NOMBRE": "Centro Comercial", "CATEGORIA": "Comercio", "SUBTIPO": "Centro Comercial", "FUENTE": "OSM-HOT", "MUNICIPIO": "", "DATO_ADICIONAL": "commercial"}}, {"type": "Feature", "geometry": {"x": -75.09115881899999, "y": 3.6174165160000484}, "properties": {"OBJECTID": 102, "NOMBRE": "Hospital", "CATEGORIA": "Salud", "SUBTIPO": "Hospital", "FUENTE": "OSM-HOT", "MUNICIPIO": "", "DATO_ADICIONAL": "hospital"}}, {"type": "Feature", "geometry": {"x": -75.09307924999996, "y": 3.626733049000052}, "properties": {"OBJECTID": 103, "NOMBRE": "Invernadero", "CATEGORIA": "Produccion Agr", "SUBTIPO": "Invernadero", "FUENTE": "OSM-HOT", "MUNICIPIO": "", "DATO_ADICIONAL": "greenhouse"}}]}